QIANFAN-132             
1 69078U 26104F   26155.29548267  .00000118  00000+0  50436-4 0  9996
2 69078  88.9863 343.0915 0004891 136.8174 223.3400 14.18146846  3258
QIANFAN-133             
1 69079U 26104G   26155.28076275  .00000121  00000+0  50956-4 0  9992
2 69079  88.9862 343.0892 0004418 146.8505 213.2962 14.19028625  3252
QIANFAN-134             
1 69080U 26104H   26155.27558207  .00000125  00000+0  52738-4 0  9997
2 69080  88.9862 343.0884 0005349 131.2916 228.8735 14.19324100  3250
QIANFAN-135             
1 69081U 26104J   26155.27110324  .00000117  00000+0  48495-4 0  9998
2 69081  88.9863 343.0879 0004223 158.9872 201.1492 14.19621563  3250
QIANFAN-136             
1 69082U 26104K   26155.26737333  .00000128  00000+0  53576-4 0  9991
2 69082  88.9862 343.0871 0004680 146.9680 213.1803 14.19913881  3259
QIANFAN-137             
1 69083U 26104L   26155.28597929  .00000129  00000+0  48757-4 0  9995
2 69083  88.9862 343.0711 0005389 140.5281 219.6306 14.25196227  3261
QIANFAN-138             
1 69084U 26104M   26155.25664558  .00000122  00000+0  49957-4 0  9992
2 69084  88.9863 343.0856 0004233 148.7892 211.3551 14.20801424  3255
QIANFAN-139             
1 69085U 26104N   26155.25220191  .00000137  00000+0  56657-4 0  9995
2 69085  88.9863 343.0849 0004197 139.0119 221.1388 14.21102178  3250
QIANFAN-140             
1 69086U 26104P   26155.24806331  .00000121  00000+0  48789-4 0  9991
2 69086  88.9863 343.0843 0004224 143.4545 216.6935 14.21391760  3252
QIANFAN-141             
1 69087U 26104Q   26155.24425222  .00000120  00000+0  47921-4 0  9994
2 69087  88.9862 343.0836 0003854 139.3619 220.7861 14.21633171  3257
QIANFAN-142             
1 69088U 26104R   26155.30994398  .00000126  00000+0  50470-4 0  9996
2 69088  88.9862 343.0747 0005106 131.2488 228.9144 14.21952006  3262
QIANFAN-143             
1 69089U 26104S   26155.29880426  .00000127  00000+0  49691-4 0  9995
2 69089  88.9862 343.0730 0004396 132.9857 227.1704 14.23170563  3268
QIANFAN-144             
1 69090U 26104T   26155.30380430  .00000126  00000+0  49850-4 0  9995
2 69090  88.9862 343.0739 0003796 124.0402 236.1150 14.22581332  3264
ZHUQUE-2E R/B           
1 69095U 26105A   26155.32469656  .00196409 -77949-6  48363-3 0  9992
2 69095  88.9715 196.0176 0463751 347.5399  11.4674 15.13421965  3200
2026-106A               
1 69097U 26106A   26154.77048861  .00007975  00000+0  47981-3 0  9994
2 69097  97.5095 237.0979 0013793 206.6730 153.3792 15.11022505  2950
2026-106B               
1 69098U 26106B   26154.77503644  .00005409  00000+0  34002-3 0  9990
2 69098  97.5076 237.0874 0014198 202.6781 157.3822 15.09567421  2952
2026-106C               
1 69099U 26106C   26154.76997645  .00007825  00000+0  47041-3 0  9999
2 69099  97.5099 237.0996 0013580 207.4843 152.5671 15.11063491  2959
2026-106D               
1 69100U 26106D   26154.76833032  .00007272  00000+0  43598-3 0  9990
2 69100  97.5075 237.0959 0013228 210.1175 149.9296 15.11188780  2955
2026-106E               
1 69101U 26106E   26152.57989091  .00009485  00000+0  56369-3 0  9993
2 69101  97.5078 234.9552 0015007 220.2305 139.7815 15.11402667  2629
DRAGON CRS-34           
1 69103U 26107A   26154.96745432  .00008451  00000+0  15807-3 0  9994
2 69103  51.6330   5.5404 0007081 130.0270 230.1341 15.49590346569343
QIANFAN-145             
1 69104U 26108A   26155.26907453  .00000362  00000+0  17599-3 0  9996
2 69104  89.0120  23.6593 0015313 154.1160 206.0797 14.16075287  2511
QIANFAN-146             
1 69105U 26108B   26155.28552564  .00000413  00000+0  17546-3 0  9997
2 69105  89.0124  23.6439 0015616 152.7052 207.4964 14.23382855  2527
QIANFAN-147             
1 69106U 26108C   26155.25746910  .00000359  00000+0  17161-3 0  9997
2 69106  89.0120  23.6574 0015317 151.2008 209.0030 14.17032043  2512
QIANFAN-148             
1 69107U 26108D   26155.25212546  .00000348  00000+0  16459-3 0  9998
2 69107  89.0120  23.6568 0015794 156.2604 203.9317 14.17401135  2515
QIANFAN-149             
1 69108U 26108E   26155.25023020  .00000361  00000+0  16992-3 0  9993
2 69108  89.0123  23.6569 0015442 155.5087 204.6839 14.17855677  2518
QIANFAN-150             
1 69109U 26108F   26155.31328495  .00000348  00000+0  16212-3 0  9995
2 69109  89.0124  23.6481 0015470 157.0753 203.1130 14.18304211  2524
QIANFAN-151             
1 69110U 26108G   26155.30860850  .00000374  00000+0  17274-3 0  9990
2 69110  89.0123  23.6472 0015581 155.6214 204.5715 14.18799807  2527
QIANFAN-152             
1 69111U 26108H   26155.30498770  .00000371  00000+0  16930-3 0  9994
2 69111  89.0122  23.6465 0014801 155.5156 204.6740 14.19417150  2525
