OBJECT_NAME,OBJECT_ID,EPOCH,MEAN_MOTION,ECCENTRICITY,INCLINATION,RA_OF_ASC_NODE,ARG_OF_PERICENTER,MEAN_ANOMALY,EPHEMERIS_TYPE,CLASSIFICATION_TYPE,NORAD_CAT_ID,ELEMENT_SET_NO,REV_AT_EPOCH,BSTAR,MEAN_MOTION_DOT,MEAN_MOTION_DDOT
QIANFAN-132,2026-104F,2026-06-04T07:05:29.702688,14.18146846,.00048919,88.9863,343.0915,136.8174,223.3400,0,U,69078,999,325,.50436075E-4,.118E-5,0
QIANFAN-133,2026-104G,2026-06-04T06:44:17.901600,14.19028625,.00044187,88.9862,343.0892,146.8505,213.2962,0,U,69079,999,325,.50955828E-4,.121E-5,0
QIANFAN-134,2026-104H,2026-06-04T06:36:50.290848,14.19324100,.00053495,88.9862,343.0884,131.2916,228.8735,0,U,69080,999,325,.52737937E-4,.125E-5,0
QIANFAN-135,2026-104J,2026-06-04T06:30:23.319936,14.19621563,.00042238,88.9863,343.0879,158.9872,201.1492,0,U,69081,999,325,.48495038E-4,.117E-5,0
QIANFAN-136,2026-104K,2026-06-04T06:25:01.055712,14.19913881,.00046805,88.9862,343.0871,146.9680,213.1803,0,U,69082,999,325,.53575994E-4,.128E-5,0
QIANFAN-137,2026-104L,2026-06-04T06:51:48.610656,14.25196227,.00053895,88.9862,343.0711,140.5281,219.6306,0,U,69083,999,326,.48757369E-4,.129E-5,0
QIANFAN-138,2026-104M,2026-06-04T06:09:34.178112,14.20801424,.0004233,88.9863,343.0856,148.7892,211.3551,0,U,69084,999,325,.4995705E-4,.122E-5,0
QIANFAN-139,2026-104N,2026-06-04T06:03:10.245024,14.21102178,.00041979,88.9863,343.0849,139.0119,221.1388,0,U,69085,999,325,.566574E-4,.137E-5,0
QIANFAN-140,2026-104P,2026-06-04T05:57:12.669984,14.21391760,.00042244,88.9863,343.0843,143.4545,216.6935,0,U,69086,999,325,.48789103E-4,.121E-5,0
QIANFAN-141,2026-104Q,2026-06-04T05:51:43.391808,14.21633171,.00038548,88.9862,343.0836,139.3619,220.7861,0,U,69087,999,325,.47920604E-4,.12E-5,0
QIANFAN-142,2026-104R,2026-06-04T07:26:19.159872,14.21952006,.00051066,88.9862,343.0747,131.2488,228.9144,0,U,69088,999,326,.5047013E-4,.126E-5,0
QIANFAN-143,2026-104S,2026-06-04T07:10:16.688064,14.23170563,.00043968,88.9862,343.0730,132.9857,227.1704,0,U,69089,999,326,.49690961E-4,.127E-5,0
QIANFAN-144,2026-104T,2026-06-04T07:17:28.691520,14.22581332,.00037961,88.9862,343.0739,124.0402,236.1150,0,U,69090,999,326,.4985037E-4,.126E-5,0
ZHUQUE-2E R/B,2026-105A,2026-06-04T07:47:33.782784,15.13421965,.04637519,88.9715,196.0176,347.5399,11.4674,0,U,69095,999,320,.48363032E-3,.196409E-2,-.779486E-6
2026-106A,2026-106A,2026-06-03T18:29:30.215904,15.11022505,.00137936,97.5095,237.0979,206.6730,153.3792,0,U,69097,999,295,.47981051E-3,.7975E-4,0
2026-106B,2026-106B,2026-06-03T18:36:03.148416,15.09567421,.00141984,97.5076,237.0874,202.6781,157.3822,0,U,69098,999,295,.34002022E-3,.5409E-4,0
2026-106C,2026-106C,2026-06-03T18:28:45.965280,15.11063491,.00135804,97.5099,237.0996,207.4843,152.5671,0,U,69099,999,295,.47040928E-3,.7825E-4,0
2026-106D,2026-106D,2026-06-03T18:26:23.739648,15.11188780,.00132281,97.5075,237.0959,210.1175,149.9296,0,U,69100,999,295,.43598028E-3,.7272E-4,0
2026-106E,2026-106E,2026-06-01T13:55:02.574624,15.11402667,.00150074,97.5078,234.9552,220.2305,139.7815,0,U,69101,999,262,.5636941E-3,.9485E-4,0
DRAGON CRS-34,2026-107A,2026-06-03T23:13:08.053248,15.49590346,.00070816,51.6330,5.5404,130.0270,230.1341,0,U,69103,999,56934,.15806838E-3,.8451E-4,0
QIANFAN-145,2026-108A,2026-06-04T06:27:28.039392,14.16075287,.00153134,89.0120,23.6593,154.1160,206.0797,0,U,69104,999,251,.17598795E-3,.362E-5,0
QIANFAN-146,2026-108B,2026-06-04T06:51:09.415296,14.23382855,.00156164,89.0124,23.6439,152.7052,207.4964,0,U,69105,999,252,.1754589E-3,.413E-5,0
QIANFAN-147,2026-108C,2026-06-04T06:10:45.330240,14.17032043,.00153171,89.0120,23.6574,151.2008,209.0030,0,U,69106,999,251,.17160849E-3,.359E-5,0
QIANFAN-148,2026-108D,2026-06-04T06:03:03.639744,14.17401135,.00157941,89.0120,23.6568,156.2604,203.9317,0,U,69107,999,251,.16459022E-3,.348E-5,0
QIANFAN-149,2026-108E,2026-06-04T06:00:19.889280,14.17855677,.00154427,89.0123,23.6569,155.5087,204.6839,0,U,69108,999,251,.16991677E-3,.361E-5,0
QIANFAN-150,2026-108F,2026-06-04T07:31:07.819680,14.18304211,.00154707,89.0124,23.6481,157.0753,203.1130,0,U,69109,999,252,.16211607E-3,.348E-5,0
QIANFAN-151,2026-108G,2026-06-04T07:24:23.774400,14.18799807,.00155812,89.0123,23.6472,155.6214,204.5715,0,U,69110,999,252,.17273836E-3,.374E-5,0
QIANFAN-152,2026-108H,2026-06-04T07:19:10.937280,14.19417150,.00148016,89.0122,23.6465,155.5156,204.6740,0,U,69111,999,252,.16929519E-3,.371E-5,0
